NORAD_CAT_ID,OBJECT_NAME,OBJECT_TYPE,EPOCH,MEAN_MOTION,ECCENTRICITY,INCLINATION,RA_OF_ASC_NODE,ARG_OF_PERICENTER,MEAN_ANOMALY,BSTAR,MEAN_MOTION_DOT,MEAN_MOTION_DDOT,TLE_LINE0,TLE_LINE1,TLE_LINE2,SEMIMAJOR_AXIS,PERIOD,APOGEE,PERIGEE,DECAYED
54774.0,STARLINK-5454,PAYLOAD,2023-08-26 09:14:21,15.08844701,0.0001124,53.2155,227.142,79.7361,280.3758,0.00018748,2.698e-05,0.0,0 STARLINK-5454,1 54774U 22175S   23238.38496643  .00002698  00000-0  18748-3 0  9991,2 54774  53.2155 227.1420 0001124  79.7361 280.3758 15.08844701 38135,6917.866,95.437,540.509,538.953,0.0
54774.0,STARLINK-5454,PAYLOAD,2023-08-27 09:05:07,15.08850605,0.0001164,53.216,222.6809,85.4245,274.688,6.0653e-05,6.78e-06,0.0,0 STARLINK-5454,1 54774U 22175S   23239.37856326  .00000678  00000-0  60653-4 0  9998,2 54774  53.2160 222.6809 0001164  85.4245 274.6880 15.08850605 40440,6917.848,95.437,540.518,538.908,0.0
54774.0,STARLINK-5454,PAYLOAD,2023-08-28 02:34:23,15.08841973,0.0001297,53.2166,219.4109,93.5165,266.5976,-0.00012289,-2.243e-05,0.0,0 STARLINK-5454,1 54774U 22175S   23240.10721322 -.00002243  00000-0 -12289-3 0  9991,2 54774  53.2166 219.4109 0001297  93.5165 266.5976 15.08841973 38396,6917.874,95.437,540.637,538.842,0.0
54774.0,STARLINK-5454,PAYLOAD,2023-08-28 15:17:28,15.08840879,0.0001291,53.2168,217.0314,93.959,266.155,-9.6734e-05,-1.827e-05,0.0,0 STARLINK-5454,1 54774U 22175S   23240.63713145 -.00001827  00000-0 -96734-4 0  9998,2 54774  53.2168 217.0314 0001291  93.9590 266.1550 15.08840879 40638,6917.878,95.437,540.636,538.85,0.0
54774.0,STARLINK-5454,PAYLOAD,2023-08-29 07:11:19,15.08843247,0.000138,53.2167,214.0579,97.6571,262.4578,-2.5775e-05,-6.98e-06,0.0,0 STARLINK-5454,1 54774U 22175S   23241.29952727 -.00000698  00000-0 -25775-4 0  9994,2 54774  53.2167 214.0579 0001380  97.6571 262.4578 15.08843247 38577,6917.87,95.437,540.69,538.781,0.0
54774.0,STARLINK-5454,PAYLOAD,2023-08-29 15:08:15,15.08828847,0.0001418,53.2167,212.5712,101.0411,259.074,8.0637e-05,9.95e-06,0.0,0 STARLINK-5454,1 54774U 22175S   23241.63073303  .00000995  00000-0  80637-4 0  9992,2 54774  53.2167 212.5712 0001418 101.0411 259.0740 15.08828847 38622,6917.914,95.438,540.76,538.799,0.0
54774.0,STARLINK-5454,PAYLOAD,2023-08-30 05:26:45,15.08818963,0.0001444,53.217,209.8952,91.8677,268.2481,-9.2878e-05,-1.765e-05,0.0,0 STARLINK-5454,1 54774U 22175S   23242.22690978 -.00001765  00000-0 -92878-4 0  9999,2 54774  53.2170 209.8952 0001444  91.8677 268.2481 15.08818963 38712,6917.945,95.439,540.809,538.811,0.0
54774.0,STARLINK-5454,PAYLOAD,2023-08-30 14:59:03,15.08823265,0.000142,53.2168,208.111,87.9326,272.1829,-5.0244e-05,-1.087e-05,0.0,0 STARLINK-5454,1 54774U 22175S   23242.62434996 -.00001087  00000-0 -50244-4 0  9997,2 54774  53.2168 208.1110 0001420  87.9326 272.1829 15.08823265 40936,6917.932,95.439,540.779,538.814,0.0
54774.0,STARLINK-5454,PAYLOAD,2023-08-31 10:03:40,15.08839335,0.0001307,53.2165,204.542,86.1066,274.0075,6.8858e-06,-1.78e-06,0.0,0 STARLINK-5454,1 54774U 22175S   23243.41922144 -.00000178  00000-0  68858-5 0  9992,2 54774  53.2165 204.5420 0001307  86.1066 274.0075 15.08839335 38894,6917.882,95.438,540.652,538.843,0.0
54774.0,STARLINK-5454,PAYLOAD,2023-08-31 21:11:22,15.08833185,5.31e-05,53.2172,202.4616,88.3077,271.7976,0.0001305,1.79e-05,0.0,0 STARLINK-5454,1 54774U 22175S   23243.88289826  .00001790  00000-0  13050-3 0  9998,2 54774  53.2172 202.4616 0000531  88.3077 271.7976 15.08833185 41121,6917.901,95.438,540.134,539.399,0.0
54774.0,STARLINK-5454,PAYLOAD,2023-09-01 03:32:54,15.08843402,0.000135,53.2152,201.2713,89.6125,270.5022,0.00021467,3.131e-05,0.0,0 STARLINK-5454,1 54774U 22175S   23244.14785075  .00003131  00000-0  21467-3 0  9997,2 54774  53.2152 201.2713 0001350  89.6125 270.5022 15.08843402 39008,6917.87,95.437,540.669,538.801,0.0
54774.0,STARLINK-5454,PAYLOAD,2023-09-01 21:02:08,15.08844785,0.0001095,53.2162,198.0013,82.0583,278.0533,0.00011283,1.509e-05,0.0,0 STARLINK-5454,1 54774U 22175S   23244.87648924  .00001509  00000-0  11283-3 0  9990,2 54774  53.2162 198.0013 0001095  82.0583 278.0533 15.08844785 41273,6917.866,95.437,540.488,538.973,0.0
54774.0,STARLINK-5454,PAYLOAD,2023-09-02 03:23:41,15.08850238,0.0002257,53.2139,196.8086,93.0856,267.0394,5.9489e-05,6.59e-06,0.0,0 STARLINK-5454,1 54774U 22175S   23245.14144975  .00000659  00000-0  59489-4 0  9994,2 54774  53.2139 196.8086 0002257  93.0856 267.0394 15.08850238 41317,6917.849,95.437,541.275,538.153,0.0
54774.0,STARLINK-5454,PAYLOAD,2023-09-03 00:03:42,15.08843204,0.0001597,53.2131,192.9426,98.9894,261.1279,-0.0001084,-2.013e-05,0.0,0 STARLINK-5454,1 54774U 22175S   23246.00257378 -.00002013  00000-0 -10840-3 0  9997,2 54774  53.2131 192.9426 0001597  98.9894 261.1279 15.08843204 39281,6917.871,95.437,540.84,538.631,0.0
54774.0,STARLINK-5454,PAYLOAD,2023-09-03 03:14:28,15.08845904,0.0001425,53.2157,192.3508,89.9726,270.1429,-8.6608e-05,-1.666e-05,0.0,0 STARLINK-5454,1 54774U 22175S   23246.13505154 -.00001666  00000-0 -86608-4 0  9998,2 54774  53.2157 192.3508 0001425  89.9726 270.1429 15.08845904 41467,6917.862,95.437,540.713,538.742,0.0
54774.0,STARLINK-5454,PAYLOAD,2023-09-04 03:05:15,15.08836996,0.0001163,53.2165,187.8893,100.0396,260.0728,-4.3437e-05,-9.79e-06,0.0,0 STARLINK-5454,1 54774U 22175S   23247.12865569 -.00000979  00000-0 -43437-4 0  9996,2 54774  53.2165 187.8893 0001163 100.0396 260.0728 15.08836996 39456,6917.89,95.438,540.559,538.95,0.0
54774.0,STARLINK-5454,PAYLOAD,2023-09-04 12:37:34,15.08832058,0.0001201,53.216,186.105,91.8432,268.2698,2.2054e-05,6.3e-07,0.0,0 STARLINK-5454,1 54774U 22175S   23247.52609759  .00000063  00000-0  22054-4 0  9991,2 54774  53.2160 186.1050 0001201  91.8432 268.2698 15.08832058 41677,6917.905,95.438,540.601,538.939,0.0
54774.0,STARLINK-5454,PAYLOAD,2023-09-05 06:06:49,15.08838666,0.0001341,53.2169,182.8344,93.2333,266.8813,3.8911e-05,3.31e-06,0.0,0 STARLINK-5454,1 54774U 22175S   23248.25473648  .00000331  00000-0  38911-4 0  9995,2 54774  53.2169 182.8344 0001341  93.2333 266.8813 15.08838666 39622,6917.884,95.438,540.677,538.822,0.0
54774.0,STARLINK-5454,PAYLOAD,2023-09-06 01:11:27,15.08835475,0.0001275,53.2164,179.2656,94.1318,265.982,8.7928e-06,-1.48e-06,0.0,0 STARLINK-5454,1 54774U 22175S   23249.04962191 -.00000148  00000-0  87928-5 0  9999,2 54774  53.2164 179.2656 0001275  94.1318 265.9820 15.08835475 39748,6917.894,95.438,540.641,538.877,0.0
54774.0,STARLINK-5454,PAYLOAD,2023-09-06 18:40:41,15.08836332,0.0001333,53.2168,175.9951,93.3271,266.7874,6.4209e-05,7.34e-06,0.0,0 STARLINK-5454,1 54774U 22175S   23249.77826031  .00000734  00000-0  64209-4 0  9997,2 54774  53.2168 175.9951 0001333  93.3271 266.7874 15.08836332 42012,6917.892,95.438,540.679,538.834,0.0
54774.0,STARLINK-5454,PAYLOAD,2023-09-06 21:51:27,15.08840852,0.0001396,53.2167,175.4002,88.6622,271.453,6.385e-06,-1.86e-06,0.0,0 STARLINK-5454,1 54774U 22175S   23249.91073956 -.00000186  00000-0  63850-5 0  9997,2 54774  53.2167 175.4002 0001396  88.6622 271.4530 15.08840852 39873,6917.878,95.438,540.709,538.777,0.0
54774.0,STARLINK-5454,PAYLOAD,2023-09-07 18:31:28,15.08835383,0.0001369,53.217,171.5346,95.0596,265.0552,-3.1081e-06,-3.37e-06,0.0,0 STARLINK-5454,1 54774U 22175S   23250.77186276 -.00000337  00000-0 -31081-5 0  9993,2 54774  53.2170 171.5346 0001369  95.0596 265.0552 15.08835383 42169,6917.895,95.438,540.707,538.812,0.0
54774.0,STARLINK-5454,PAYLOAD,2023-09-08 02:28:24,15.08840462,0.0001475,53.2176,170.0486,79.0823,281.0335,-4.157e-06,-3.54e-06,0.0,0 STARLINK-5454,1 54774U 22175S   23251.10306235 -.00000354  00000-0 -41570-5 0  9993,2 54774  53.2176 170.0486 0001475  79.0823 281.0335 15.08840462 40054,6917.879,95.438,540.764,538.724,0.0
54774.0,STARLINK-5454,PAYLOAD,2023-09-08 18:22:15,15.08837748,0.0001484,53.2177,167.0752,78.7322,281.3837,1.7401e-05,-1.1e-07,0.0,0 STARLINK-5454,1 54774U 22175S   23251.76546262 -.00000011  00000-0  17401-4 0  9995,2 54774  53.2177 167.0752 0001484  78.7322 281.3837 15.08837748 42311,6917.887,95.438,540.779,538.726,0.0
54774.0,STARLINK-5454,PAYLOAD,2023-09-09 11:51:30,15.08841034,0.0001365,53.2176,163.8048,83.1102,277.0045,3.7529e-05,3.09e-06,0.0,0 STARLINK-5454,1 54774U 22175S   23252.49409798  .00000309  00000-0  37529-4 0  9990,2 54774  53.2176 163.8048 0001365  83.1102 277.0045 15.08841034 42424,6917.877,95.437,540.687,538.798,0.0
54774.0,STARLINK-5454,PAYLOAD,2023-09-09 18:13:02,15.08840517,0.0001421,53.2179,162.6163,77.1105,283.0046,-3.0959e-05,-7.81e-06,0.0,0 STARLINK-5454,1 54774U 22175S   23252.75906158 -.00000781  00000-0 -30959-4 0  9997,2 54774  53.2179 162.6163 0001421  77.1105 283.0046 15.08840517 40309,6917.879,95.438,540.727,538.761,0.0
54774.0,STARLINK-5454,PAYLOAD,2023-09-10 03:45:21,15.08842777,0.0001471,53.2173,160.83,93.2476,266.8684,1.4088e-05,-6.4e-07,0.0,0 STARLINK-5454,1 54774U 22175S   23253.15649725 -.00000064  00000-0  14088-4 0  9994,2 54774  53.2173 160.8300 0001471  93.2476 266.8684 15.08842777 42524,6917.872,95.437,540.755,538.719,0.0
54774.0,STARLINK-5454,PAYLOAD,2023-09-10 22:49:59,15.08833895,0.0001507,53.2175,157.2619,99.3634,260.7529,-0.00010747,-1.998e-05,0.0,0 STARLINK-5454,1 54774U 22175S   23253.95138860 -.00001998  00000-0 -10747-3 0  9990,2 54774  53.2175 157.2619 0001507  99.3634 260.7529 15.08833895 40487,6917.899,95.438,540.807,538.722,0.0
54774.0,STARLINK-5454,PAYLOAD,2023-09-11 17:54:37,15.08837261,0.0001357,53.217,153.6931,94.4018,265.7129,-4.2038e-06,-3.55e-06,0.0,0 STARLINK-5454,1 54774U 22175S   23254.74626419 -.00000355  00000-0 -42038-5 0  9996,2 54774  53.2170 153.6931 0001357  94.4018 265.7129 15.08837261 40600,6917.889,95.438,540.693,538.815,0.0
54774.0,STARLINK-5454,PAYLOAD,2023-09-11 22:40:46,15.08843403,0.0001341,53.2172,152.8013,90.1474,269.9672,4.8374e-05,4.82e-06,0.0,0 STARLINK-5454,1 54774U 22175S   23254.94497868  .00000482  00000-0  48374-4 0  9999,2 54774  53.2172 152.8013 0001341  90.1474 269.9672 15.08843403 40633,6917.87,95.437,540.663,538.807,0.0
